[{"OBJECT_NAME":"STARLINK-35171","OBJECT_ID":"2025-207P","EPOCH":"2026-03-09T21:27:54.093312","MEAN_MOTION":15.05644602,"ECCENTRICITY":3.576e-5,"INCLINATION":97.6019,"RA_OF_ASC_NODE":138.8879,"ARG_OF_PERICENTER":102.0897,"MEAN_ANOMALY":258.037,"EPHEMERIS_TYPE":0,"CLASSIFICATION_TYPE":"U","NORAD_CAT_ID":65605,"ELEMENT_SET_NO":999,"REV_AT_EPOCH":2813,"BSTAR":6.560041e-5,"MEAN_MOTION_DOT":8.86e-6,"MEAN_MOTION_DDOT":0},{"OBJECT_NAME":"COSMOS 2251 DEB","OBJECT_ID":"1993-036AJA","EPOCH":"2026-02-11T08:52:27.880032","MEAN_MOTION":15.05018922,"ECCENTRICITY":0.00700444,"INCLINATION":73.9325,"RA_OF_ASC_NODE":48.614,"ARG_OF_PERICENTER":290.1885,"MEAN_ANOMALY":69.178,"EPHEMERIS_TYPE":0,"CLASSIFICATION_TYPE":"U","NORAD_CAT_ID":35071,"ELEMENT_SET_NO":999,"REV_AT_EPOCH":68448,"BSTAR":0.0010407924,"MEAN_MOTION_DOT":0.00015602,"MEAN_MOTION_DDOT":0}]
